! Propagated orbits
format  = 'OEF2.0'       ! file format
rectype = 'ML'           ! record type (1L/ML)
refsys  = ECLM J2000     ! default reference system
END_OF_HEADER
! Orbital elements of object K20SA3E (computed with least squares fit)
K20SA3E
! Keplerian elements: a, e, i, long. node, arg. peric., mean anomaly
 KEP   2.6560887910299198E+00 0.323298886246569  10.0351186819502 282.8100753611521  78.1952197872338   6.0212953730713
 MJD     59129.235106341 TDT
 MAG   0.000  0.000
! Non-grav parameters: model used, actual number in use, dimension
 LSP   0  0    6
! RMS    2.18007E-02   3.51950E-03   6.33842E-02   6.36417E-01   2.71518E+00   9.76338E-01
! EIG   7.58267E-07   1.86766E-06   8.24797E-05   2.15456E-04   2.10053E-02   5.20294E-02
! WEA   0.13103   0.05938  -0.00054   0.21322  -0.90959   0.32633
 COV   4.752690618851852E-04  5.593020157805150E-05  1.300848768938711E-03
 COV   3.715763093493815E-03 -1.557741743226748E-02  4.915522776636112E-03
 COV   1.238690511496780E-05  1.016059118407822E-04  1.913510453975043E-03
 COV  -8.141140229404317E-03  2.865957402380178E-03  4.017557378001134E-03
 COV  -2.906141209043850E-03  1.324442321322897E-02 -6.810082688920798E-03
 COV   4.050267022237022E-01 -1.727702982067020E+00  6.207432215103177E-01
 COV   7.372227355976491E+00 -2.649433472823891E+00  9.532366103107299E-01
 NOR   1.690402020657541E+09 -5.004770725910288E+09 -3.636780017659643E+08
 NOR   5.316586933118804E+07  5.017911877821541E+07  1.085789777857872E+08
 NOR   8.999472575085724E+10  1.363522650451420E+09  2.269859775586416E+09
 NOR   2.319264808097772E+09  4.733036281541705E+09  7.941609899380256E+07
 NOR  -2.104574707687138E+06 -1.306317189646968E+06 -3.917075881666684E+06
 NOR   8.012065738514033E+07  8.133082844990535E+07  1.667637087978117E+08
 NOR   8.257286827457242E+07  1.693003521621278E+08  3.471409901318659E+08
